ONEWEB-0446             
1 51640U 22012U   24185.91529735 -.00000198  00000+0 -60442-3 0  9992
2 51640  87.8938 178.1139 0001707  89.6840 270.4483 13.10369865115918
ONEWEB-0448             
1 51641U 22012V   24185.92027223 -.00000437  00000+0 -12884-2 0  9991
2 51641  87.8939 178.1135 0002138  85.4145 274.7226 13.10369660115888
ONEWEB-0449             
1 51642U 22012W   24185.92525777 -.00000573  00000+0 -16790-2 0  9990
2 51642  87.8934 178.1067 0002108  95.4526 264.6842 13.10373466115891
ONEWEB-0451             
1 51643U 22012X   24185.94064213  .00000007  00000+0 -14993-4 0  9992
2 51643  87.9171 147.8523 0002259  84.9042 275.2347 13.17648435119732
ONEWEB-0452             
1 51644U 22012Y   24185.93903816  .00000030  00000+0  43948-4 0  9990
2 51644  87.9180 147.8936 0002351  90.4258 269.7143 13.17648974119746
ONEWEB-0456             
1 51646U 22012AA  24185.93521167 -.00000576  00000+0 -16871-2 0  9997
2 51646  87.8935 178.0762 0001954  77.8166 282.3180 13.10373790115936
ONEWEB-0457             
1 51647U 22012AB  24185.91197078  .00000002  00000+0 -30291-4 0  9993
2 51647  87.8938 178.1045 0001891  95.3406 264.7937 13.10367970115934
ONEWEB-0458             
1 51648U 22012AC  24185.93354967 -.00000616  00000+0 -18015-2 0  9998
2 51648  87.8946 178.1161 0002213  88.4631 271.6750 13.10373768115892
